LEMUR-2-LAILA           
1 66776U 25276DQ  26162.16939453  .00004932  00000+0  22420-3 0  9991
2 66776  97.4179 236.1463 0001828 143.6589 216.4771 15.21204262 29533
LEMUR-2-CELIJO-SB-PK    
1 66781U 25276DW  26162.16600185  .00004979  00000+0  40570-3 0  9991
2 66781  97.5277 233.1403 0008895 146.9122 213.2660 14.99898304 21725
LEMUR-2-FINNIAN         
1 66782U 25276DX  26162.14458180  .00005640  00000+0  45410-3 0  9990
2 66782  97.5272 233.3286 0008715 107.3645 252.8533 15.00299640 19090
LEMUR-2-STARLIGHT       
1 66783U 25276DY  26162.16231047  .00004513  00000+0  37647-3 0  9995
2 66783  97.5279 233.0064 0015367 144.8559 215.3682 14.98980268 29291
LEMUR-2-TARTIFLETTE     
1 66784U 25276DZ  26162.16090691  .00005251  00000+0  43704-3 0  9995
2 66784  97.5281 233.0105 0013999 150.8950 209.3057 14.99008293 29291
LEMUR-2-VUKASIN         
1 66785U 25276EA  26162.15976427  .00004942  00000+0  39869-3 0  9998
2 66785  97.5314 233.2915 0006318 138.3619 221.8087 15.00300144 29240
LEMUR-2-HOTSPUR-TOM     
1 66786U 25276EB  26162.15301255  .00005898  00000+0  49164-3 0  9990
2 66786  97.5266 232.9859 0015449 145.9165 214.3054 14.98886330 29226
LEMUR-2-MYRA            
1 66787U 25276EC  26162.19070181  .00005550  00000+0  44781-3 0  9991
2 66787  97.5223 233.2689 0015887 161.3221 198.8589 15.00159600 29312
LEMUR-2 FIKRETDENGIZ    
1 67363U 26004A   26161.47834365  .00003933  00000+0  43116-3 0  9998
2 67363  97.8012 160.1398 0009548 152.1568 208.0161 14.88277183 22287
TWILIGHT-1 OBJECT B     
1 67364U 26004B   26161.97087041  .00001581  00000+0  17945-3 0  9993
2 67364  97.8060 160.6426 0009547 142.2653 217.9235 14.87680566 22364
LEMUR-2-MARIO-SOUSA     
1 67365U 26004C   26162.26949867  .00003865  00000+0  42184-3 0  9990
2 67365  97.7987 160.9149 0009228 150.5022 209.6717 14.88465373 22412
LEMUR-2-SONNENBLUME     
1 67367U 26004E   26162.26713524  .00002453  00000+0  27114-3 0  9999
2 67367  97.7982 160.8995 0008709 152.3142 207.8540 14.88284682 22419
LEMUR-2-WOBLER          
1 67368U 26004F   26161.99250588  .00003397  00000+0  37138-3 0  9990
2 67368  97.8034 160.7451 0009119 143.1938 216.9906 14.88474680 22373
LEMUR-2-GRAM-E-SUE      
1 67370U 26004H   26161.98299016  .00001842  00000+0  20430-3 0  9991
2 67370  97.7966 160.6348 0007789 153.7824 206.3789 14.88443495 22377
LEMUR-2-KATIE           
1 67387U 26004AA  26161.97680588  .00003152  00000+0  33241-3 0  9996
2 67387  97.8032 161.0675 0004735 106.1203 254.0537 14.90010418 22389
LEMUR-2-HCS-BAZUS       
1 67388U 26004AB  26162.24453781  .00003649  00000+0  38393-3 0  9995
2 67388  97.8018 161.3136 0004290 100.9406 259.2294 14.90012690 22428
