OBJECT_NAME,OBJECT_ID,EPOCH,MEAN_MOTION,ECCENTRICITY,INCLINATION,RA_OF_ASC_NODE,ARG_OF_PERICENTER,MEAN_ANOMALY,EPHEMERIS_TYPE,CLASSIFICATION_TYPE,NORAD_CAT_ID,ELEMENT_SET_NO,REV_AT_EPOCH,BSTAR,MEAN_MOTION_DOT,MEAN_MOTION_DDOT
LEMUR-2-LAILA,2025-276DQ,2026-06-11T04:03:55.687392,15.21204262,.00018283,97.4179,236.1463,143.6589,216.4771,0,U,66776,999,2953,.22419742E-3,.4932E-4,0
LEMUR-2-CELIJO-SB-PK,2025-276DW,2026-06-11T03:59:02.559840,14.99898304,.00088955,97.5277,233.1403,146.9122,213.2660,0,U,66781,999,2172,.40570392E-3,.4979E-4,0
LEMUR-2-FINNIAN,2025-276DX,2026-06-11T03:28:11.867520,15.00299640,.00087159,97.5272,233.3286,107.3645,252.8533,0,U,66782,999,1909,.45410215E-3,.564E-4,0
LEMUR-2-STARLIGHT,2025-276DY,2026-06-11T03:53:43.624608,14.98980268,.00153673,97.5279,233.0064,144.8559,215.3682,0,U,66783,999,2929,.37647282E-3,.4513E-4,0
LEMUR-2-TARTIFLETTE,2025-276DZ,2026-06-11T03:51:42.357024,14.99008293,.00139991,97.5281,233.0105,150.8950,209.3057,0,U,66784,999,2929,.43704434E-3,.5251E-4,0
LEMUR-2-VUKASIN,2025-276EA,2026-06-11T03:50:03.632928,15.00300144,.00063188,97.5314,233.2915,138.3619,221.8087,0,U,66785,999,2924,.39868939E-3,.4942E-4,0
LEMUR-2-HOTSPUR-TOM,2025-276EB,2026-06-11T03:40:20.284320,14.98886330,.00154495,97.5266,232.9859,145.9165,214.3054,0,U,66786,999,2922,.49163735E-3,.5898E-4,0
LEMUR-2-MYRA,2025-276EC,2026-06-11T04:34:36.636384,15.00159600,.00158876,97.5223,233.2689,161.3221,198.8589,0,U,66787,999,2931,.44780864E-3,.555E-4,0
LEMUR-2 FIKRETDENGIZ,2026-004A,2026-06-10T11:28:48.891360,14.88277183,.00095489,97.8012,160.1398,152.1568,208.0161,0,U,67363,999,2228,.43115703E-3,.3933E-4,0
TWILIGHT-1 OBJECT B,2026-004B,2026-06-10T23:18:03.203424,14.87680566,.00095476,97.8060,160.6426,142.2653,217.9235,0,U,67364,999,2236,.17945055E-3,.1581E-4,0
LEMUR-2-MARIO-SOUSA,2026-004C,2026-06-11T06:28:04.685088,14.88465373,.00092287,97.7987,160.9149,150.5022,209.6717,0,U,67365,999,2241,.42184235E-3,.3865E-4,0
LEMUR-2-SONNENBLUME,2026-004E,2026-06-11T06:24:40.484736,14.88284682,.00087091,97.7982,160.8995,152.3142,207.8540,0,U,67367,999,2241,.27114478E-3,.2453E-4,0
LEMUR-2-WOBLER,2026-004F,2026-06-10T23:49:12.508032,14.88474680,.00091193,97.8034,160.7451,143.1938,216.9906,0,U,67368,999,2237,.37138029E-3,.3397E-4,0
LEMUR-2-GRAM-E-SUE,2026-004H,2026-06-10T23:35:30.349824,14.88443495,.00077892,97.7966,160.6348,153.7824,206.3789,0,U,67370,999,2237,.20429941E-3,.1842E-4,0
LEMUR-2-KATIE,2026-004AA,2026-06-10T23:26:36.028032,14.90010418,.00047351,97.8032,161.0675,106.1203,254.0537,0,U,67387,999,2238,.33240608E-3,.3152E-4,0
LEMUR-2-HCS-BAZUS,2026-004AB,2026-06-11T05:52:08.066784,14.90012690,.000429,97.8018,161.3136,100.9406,259.2294,0,U,67388,999,2242,.38392765E-3,.3649E-4,0
